[{"OBJECT_NAME":"GORIZONT 19","OBJECT_ID":"1989-081A","EPOCH":"2026-04-04T14:56:31.324128","MEAN_MOTION":1.00199942,"ECCENTRICITY":0.0005538,"INCLINATION":12.1564,"RA_OF_ASC_NODE":333.9858,"ARG_OF_PERICENTER":284.9525,"MEAN_ANOMALY":251.369,"EPHEMERIS_TYPE":0,"CLASSIFICATION_TYPE":"U","NORAD_CAT_ID":20263,"ELEMENT_SET_NO":999,"REV_AT_EPOCH":4660,"BSTAR":0,"MEAN_MOTION_DOT":-2.57e-6,"MEAN_MOTION_DDOT":0},{"OBJECT_NAME":"RADUGA 24","OBJECT_ID":"1989-098A","EPOCH":"2026-04-03T15:00:54.658368","MEAN_MOTION":1.00308355,"ECCENTRICITY":0.0003305,"INCLINATION":12.5853,"RA_OF_ASC_NODE":334.3208,"ARG_OF_PERICENTER":300.1455,"MEAN_ANOMALY":242.7815,"EPHEMERIS_TYPE":0,"CLASSIFICATION_TYPE":"U","NORAD_CAT_ID":20367,"ELEMENT_SET_NO":999,"REV_AT_EPOCH":13222,"BSTAR":0,"MEAN_MOTION_DOT":-3.27e-6,"MEAN_MOTION_DDOT":0},{"OBJECT_NAME":"COSMOS 2054","OBJECT_ID":"1989-101A","EPOCH":"2026-04-03T20:33:10.290240","MEAN_MOTION":1.00249692,"ECCENTRICITY":0.00011752,"INCLINATION":12.3182,"RA_OF_ASC_NODE":334.7611,"ARG_OF_PERICENTER":272.196,"MEAN_ANOMALY":78.2367,"EPHEMERIS_TYPE":0,"CLASSIFICATION_TYPE":"U","NORAD_CAT_ID":20391,"ELEMENT_SET_NO":999,"REV_AT_EPOCH":13311,"BSTAR":0,"MEAN_MOTION_DOT":5.1e-7,"MEAN_MOTION_DDOT":0},{"OBJECT_NAME":"STTW-4","OBJECT_ID":"1990-011A","EPOCH":"2026-04-03T16:40:45.084000","MEAN_MOTION":1.00310573,"ECCENTRICITY":0.00017006,"INCLINATION":14.1939,"RA_OF_ASC_NODE":346.9802,"ARG_OF_PERICENTER":166.4914,"MEAN_ANOMALY":19.3152,"EPHEMERIS_TYPE":0,"CLASSIFICATION_TYPE":"U","NORAD_CAT_ID":20473,"ELEMENT_SET_NO":999,"REV_AT_EPOCH":13229,"BSTAR":0,"MEAN_MOTION_DOT":-2.62e-6,"MEAN_MOTION_DDOT":0},{"OBJECT_NAME":"RADUGA 25","OBJECT_ID":"1990-016A","EPOCH":"2026-04-04T12:31:37.130592","MEAN_MOTION":1.00204896,"ECCENTRICITY":0.0004214,"INCLINATION":12.3987,"RA_OF_ASC_NODE":335.2036,"ARG_OF_PERICENTER":218.8047,"MEAN_ANOMALY":131.9445,"EPHEMERIS_TYPE":0,"CLASSIFICATION_TYPE":"U","NORAD_CAT_ID":20499,"ELEMENT_SET_NO":999,"REV_AT_EPOCH":13216,"BSTAR":0,"MEAN_MOTION_DOT":-3.03e-6,"MEAN_MOTION_DDOT":0},{"OBJECT_NAME":"INSAT-1D","OBJECT_ID":"1990-051A","EPOCH":"2026-04-04T05:25:38.591904","MEAN_MOTION":1.00279797,"ECCENTRICITY":0.00147982,"INCLINATION":14.6184,"RA_OF_ASC_NODE":354.5313,"ARG_OF_PERICENTER":194.4005,"MEAN_ANOMALY":165.9535,"EPHEMERIS_TYPE":0,"CLASSIFICATION_TYPE":"U","NORAD_CAT_ID":20643,"ELEMENT_SET_NO":999,"REV_AT_EPOCH":11800,"BSTAR":0,"MEAN_MOTION_DOT":-1.69e-6,"MEAN_MOTION_DDOT":0},{"OBJECT_NAME":"GORIZONT 20","OBJECT_ID":"1990-054A","EPOCH":"2026-04-03T18:15:57.521088","MEAN_MOTION":1.00316029,"ECCENTRICITY":0.00058919,"INCLINATION":12.7543,"RA_OF_ASC_NODE":336.5894,"ARG_OF_PERICENTER":244.5352,"MEAN_ANOMALY":309.4937,"EPHEMERIS_TYPE":0,"CLASSIFICATION_TYPE":"U","NORAD_CAT_ID":20659,"ELEMENT_SET_NO":999,"REV_AT_EPOCH":13094,"BSTAR":0,"MEAN_MOTION_DOT":-2.3e-7,"MEAN_MOTION_DDOT":0},{"OBJECT_NAME":"SL-12 R/B(2)","OBJECT_ID":"1990-054D","EPOCH":"2026-04-03T16:08:25.968192","MEAN_MOTION":1.00517829,"ECCENTRICITY":0.00135187,"INCLINATION":12.5973,"RA_OF_ASC_NODE":336.0074,"ARG_OF_PERICENTER":98.9635,"MEAN_ANOMALY":261.1365,"EPHEMERIS_TYPE":0,"CLASSIFICATION_TYPE":"U","NORAD_CAT_ID":20662,"ELEMENT_SET_NO":999,"REV_AT_EPOCH":13104,"BSTAR":0,"MEAN_MOTION_DOT":-1.9e-6,"MEAN_MOTION_DDOT":0},{"OBJECT_NAME":"COSMOS 2085","OBJECT_ID":"1990-061A","EPOCH":"2026-04-03T17:45:38.750112","MEAN_MOTION":1.0026229,"ECCENTRICITY":0.00140147,"INCLINATION":12.7421,"RA_OF_ASC_NODE":337.0133,"ARG_OF_PERICENTER":28.9985,"MEAN_ANOMALY":165.0212,"EPHEMERIS_TYPE":0,"CLASSIFICATION_TYPE":"U","NORAD_CAT_ID":20693,"ELEMENT_SET_NO":999,"REV_AT_EPOCH":13075,"BSTAR":0,"MEAN_MOTION_DOT":-8.4e-7,"MEAN_MOTION_DDOT":0},{"OBJECT_NAME":"SL-12 R/B(2)","OBJECT_ID":"1990-061D","EPOCH":"2026-04-04T12:37:03.981792","MEAN_MOTION":1.0030495,"ECCENTRICITY":0.00317188,"INCLINATION":12.7077,"RA_OF_ASC_NODE":336.8797,"ARG_OF_PERICENTER":218.4327,"MEAN_ANOMALY":305.799,"EPHEMERIS_TYPE":0,"CLASSIFICATION_TYPE":"U","NORAD_CAT_ID":20696,"ELEMENT_SET_NO":999,"REV_AT_EPOCH":12966,"BSTAR":0,"MEAN_MOTION_DOT":-3.76e-6,"MEAN_MOTION_DDOT":0},{"OBJECT_NAME":"SKYNET 4C","OBJECT_ID":"1990-079A","EPOCH":"2026-04-03T19:49:59.408256","MEAN_MOTION":1.00276455,"ECCENTRICITY":0.00034996,"INCLINATION":13.3639,"RA_OF_ASC_NODE":350.3222,"ARG_OF_PERICENTER":16.571,"MEAN_ANOMALY":156.1426,"EPHEMERIS_TYPE":0,"CLASSIFICATION_TYPE":"U","NORAD_CAT_ID":20776,"ELEMENT_SET_NO":999,"REV_AT_EPOCH":13014,"BSTAR":0,"MEAN_MOTION_DOT":1.24e-6,"MEAN_MOTION_DDOT":0},{"OBJECT_NAME":"SL-12 R/B(2)","OBJECT_ID":"1974-060F","EPOCH":"2026-04-04T06:16:38.567136","MEAN_MOTION":1.00307942,"ECCENTRICITY":0.00147179,"INCLINATION":1.5439,"RA_OF_ASC_NODE":252.1014,"ARG_OF_PERICENTER":225.1871,"MEAN_ANOMALY":286.161,"EPHEMERIS_TYPE":0,"CLASSIFICATION_TYPE":"U","NORAD_CAT_ID":20836,"ELEMENT_SET_NO":999,"REV_AT_EPOCH":4526,"BSTAR":0,"MEAN_MOTION_DOT":-3.63e-6,"MEAN_MOTION_DDOT":0},{"OBJECT_NAME":"GALAXY 6 (G-6)","OBJECT_ID":"1990-091B","EPOCH":"2026-04-03T11:03:38.612448","MEAN_MOTION":0.99767349,"ECCENTRICITY":0.0005125,"INCLINATION":13.9772,"RA_OF_ASC_NODE":10.5621,"ARG_OF_PERICENTER":259.6522,"MEAN_ANOMALY":272.3654,"EPHEMERIS_TYPE":0,"CLASSIFICATION_TYPE":"U","NORAD_CAT_ID":20873,"ELEMENT_SET_NO":999,"REV_AT_EPOCH":4570,"BSTAR":0,"MEAN_MOTION_DOT":-3.2e-7,"MEAN_MOTION_DDOT":0},{"OBJECT_NAME":"GORIZONT 21","OBJECT_ID":"1990-094A","EPOCH":"2026-04-03T13:27:11.145888","MEAN_MOTION":1.00216675,"ECCENTRICITY":0.0006862,"INCLINATION":12.8077,"RA_OF_ASC_NODE":337.2877,"ARG_OF_PERICENTER":270.8548,"MEAN_ANOMALY":277.2575,"EPHEMERIS_TYPE":0,"CLASSIFICATION_TYPE":"U","NORAD_CAT_ID":20923,"ELEMENT_SET_NO":999,"REV_AT_EPOCH":12970,"BSTAR":0,"MEAN_MOTION_DOT":-3.52e-6,"MEAN_MOTION_DDOT":0},{"OBJECT_NAME":"GORIZONT 22","OBJECT_ID":"1990-102A","EPOCH":"2026-04-04T13:26:46.839840","MEAN_MOTION":1.00289717,"ECCENTRICITY":0.0004843,"INCLINATION":12.7942,"RA_OF_ASC_NODE":337.7566,"ARG_OF_PERICENTER":346.6538,"MEAN_ANOMALY":209.3851,"EPHEMERIS_TYPE":0,"CLASSIFICATION_TYPE":"U","NORAD_CAT_ID":20953,"ELEMENT_SET_NO":999,"REV_AT_EPOCH":12963,"BSTAR":0,"MEAN_MOTION_DOT":-2.99e-6,"MEAN_MOTION_DDOT":0},{"OBJECT_NAME":"RADUGA 26","OBJECT_ID":"1990-112A","EPOCH":"2026-04-03T18:15:20.079648","MEAN_MOTION":1.00232948,"ECCENTRICITY":0.00030925,"INCLINATION":12.9023,"RA_OF_ASC_NODE":338.4296,"ARG_OF_PERICENTER":107.2929,"MEAN_ANOMALY":82.0072,"EPHEMERIS_TYPE":0,"CLASSIFICATION_TYPE":"U","NORAD_CAT_ID":21016,"ELEMENT_SET_NO":999,"REV_AT_EPOCH":12951,"BSTAR":0,"MEAN_MOTION_DOT":1.5e-7,"MEAN_MOTION_DDOT":0},{"OBJECT_NAME":"SL-12 R/B(2)","OBJECT_ID":"1990-112D","EPOCH":"2026-04-04T05:23:14.495712","MEAN_MOTION":1.00013206,"ECCENTRICITY":0.00246067,"INCLINATION":12.9623,"RA_OF_ASC_NODE":338.599,"ARG_OF_PERICENTER":182.1166,"MEAN_ANOMALY":356.0154,"EPHEMERIS_TYPE":0,"CLASSIFICATION_TYPE":"U","NORAD_CAT_ID":21019,"ELEMENT_SET_NO":999,"REV_AT_EPOCH":11919,"BSTAR":0,"MEAN_MOTION_DOT":-5.0e-8,"MEAN_MOTION_DDOT":0}]
