GORIZONT 19             
1 20263U 89081A   26094.62258477 -.00000257  00000+0  00000+0 0  9994
2 20263  12.1564 333.9858 0005538 284.9525 251.3690  1.00199942 46606
RADUGA 24               
1 20367U 89098A   26093.62563262 -.00000327  00000+0  00000+0 0  9995
2 20367  12.5853 334.3208 0003305 300.1455 242.7815  1.00308355132220
COSMOS 2054             
1 20391U 89101A   26093.85636910  .00000051  00000+0  00000+0 0  9996
2 20391  12.3182 334.7611 0001175 272.1960  78.2367  1.00249692133115
STTW-4                  
1 20473U 90011A   26093.69496625 -.00000262  00000+0  00000+0 0  9993
2 20473  14.1939 346.9802 0001700 166.4914  19.3152  1.00310573132294
RADUGA 25               
1 20499U 90016A   26094.52195753 -.00000303  00000+0  00000+0 0  9993
2 20499  12.3987 335.2036 0004214 218.8047 131.9445  1.00204896132169
INSAT-1D                
1 20643U 90051A   26094.22614111 -.00000169  00000+0  00000+0 0  9994
2 20643  14.6184 354.5313 0014798 194.4005 165.9535  1.00279797118003
GORIZONT 20             
1 20659U 90054A   26093.76108242 -.00000023  00000+0  00000+0 0  9994
2 20659  12.7543 336.5894 0005891 244.5352 309.4937  1.00316029130946
SL-12 R/B(2)            
1 20662U 90054D   26093.67252278 -.00000190  00000+0  00000+0 0  9992
2 20662  12.5973 336.0074 0013518  98.9635 261.1365  1.00517829131042
COSMOS 2085             
1 20693U 90061A   26093.74003183 -.00000084  00000+0  00000+0 0  9993
2 20693  12.7421 337.0133 0014014  28.9985 165.0212  1.00262290130755
SL-12 R/B(2)            
1 20696U 90061D   26094.52574053 -.00000376  00000+0  00000+0 0  9996
2 20696  12.7077 336.8797 0031718 218.4327 305.7990  1.00304950129668
SKYNET 4C               
1 20776U 90079A   26093.82638204  .00000124  00000+0  00000+0 0  9995
2 20776  13.3639 350.3222 0003499  16.5710 156.1426  1.00276455130145
SL-12 R/B(2)            
1 20836U 74060F   26094.26155749 -.00000363  00000+0  00000+0 0  9997
2 20836   1.5439 252.1014 0014717 225.1871 286.1610  1.00307942 45261
GALAXY 6 (G-6)          
1 20873U 90091B   26093.46086357 -.00000032  00000+0  00000+0 0  9992
2 20873  13.9772  10.5621 0005125 259.6522 272.3654  0.99767349 45709
GORIZONT 21             
1 20923U 90094A   26093.56054567 -.00000352  00000+0  00000+0 0  9995
2 20923  12.8077 337.2877 0006862 270.8548 277.2575  1.00216675129708
GORIZONT 22             
1 20953U 90102A   26094.56026435 -.00000299  00000+0  00000+0 0  9992
2 20953  12.7942 337.7566 0004843 346.6538 209.3851  1.00289717129631
RADUGA 26               
1 21016U 90112A   26093.76064907  .00000015  00000+0  00000+0 0  9996
2 21016  12.9023 338.4296 0003092 107.2929  82.0072  1.00232948129514
SL-12 R/B(2)            
1 21019U 90112D   26094.22447333 -.00000005  00000+0  00000+0 0  9999
2 21019  12.9623 338.5990 0024606 182.1166 356.0154  1.00013206119196
